[{"OBJECT_NAME":"SITRO-AIS 15","OBJECT_ID":"2024-199D","EPOCH":"2026-03-09T21:41:54.706560","MEAN_MOTION":14.9706426,"ECCENTRICITY":0.00074523,"INCLINATION":97.3312,"RA_OF_ASC_NODE":274.4424,"ARG_OF_PERICENTER":51.6231,"MEAN_ANOMALY":308.566,"EPHEMERIS_TYPE":0,"CLASSIFICATION_TYPE":"U","NORAD_CAT_ID":61738,"ELEMENT_SET_NO":999,"REV_AT_EPOCH":11696,"BSTAR":0.0003624053,"MEAN_MOTION_DOT":4.126e-5,"MEAN_MOTION_DDOT":0},{"OBJECT_NAME":"STARLINK-34452","OBJECT_ID":"2025-129P","EPOCH":"2026-03-09T10:46:06.539520","MEAN_MOTION":14.98320945,"ECCENTRICITY":0.00035127,"INCLINATION":70.0016,"RA_OF_ASC_NODE":74.966,"ARG_OF_PERICENTER":268.408,"MEAN_ANOMALY":91.6677,"EPHEMERIS_TYPE":0,"CLASSIFICATION_TYPE":"U","NORAD_CAT_ID":64425,"ELEMENT_SET_NO":999,"REV_AT_EPOCH":4125,"BSTAR":-0.00082466371,"MEAN_MOTION_DOT":-9.917e-5,"MEAN_MOTION_DDOT":0}]
